{"type":"FeatureCollection","features":[{"type":"Feature","properties":{},"geometry":{"type":"MultiPolygon","coordinates":[[[[-180.0,-90.0],[-180.0,90.0],[180.0,90.0],[180.0,-90.0],[-180.0,-90.0]],[[120.98597740600007,14.427827537000042],[120.98566454800005,14.425988149000034],[120.98667511700013,14.426665825000041],[120.98678255100003,14.422670805000054],[120.98887600000012,14.422770890000038],[120.98986968300004,14.422015804000068],[120.99101297800007,14.417436624000059],[120.99033180200001,14.416203306000055],[120.99336490700013,14.413630585000018],[120.994977005,14.410796160000077],[120.9944842000001,14.407563944000056],[120.99530676100007,14.405734990000044],[120.99637140100005,14.405038163000032],[120.9983886220001,14.405369040000036],[120.99854474100006,14.403687525000063],[121.00212879300011,14.399231173000032],[121.00295576400003,14.39735246600003],[121.00271823300012,14.394876707000037],[121.00173473400002,14.39424325900006],[121.0042402680001,14.392776964000065],[121.00515538700006,14.393014685000026],[121.00785481900004,14.390869810000028],[121.00666103300011,14.387115552000067],[121.0091436230001,14.381330670000064],[121.01161116900006,14.380260945000037],[121.0107845030001,14.374852788000052],[121.01002438300007,14.372633353000026],[121.00718216100006,14.370073908000052],[121.00659688700011,14.363504895000064],[121.00764494700003,14.355843146000037],[121.00689103200013,14.353943146000061],[121.01542139300011,14.351729568000051],[121.01945223300004,14.353054343000053],[121.02082500400003,14.355216677000044],[121.02257132500006,14.35587048900004],[121.02292543300007,14.357135688000026],[121.0258563740001,14.35936261100005],[121.02667421800004,14.362511171000051],[121.02865881600007,14.363513240000033],[121.02927848000003,14.365855122000028],[121.03292930300005,14.365607391000022],[121.0353612880001,14.366809967000053],[121.03625267100006,14.36628231700007],[121.0372402820001,14.36799178800004],[121.04169287800006,14.369776447000048],[121.04319395700008,14.371830665000061],[121.04491724800005,14.368204587000033],[121.04557459500006,14.368677877000035],[121.04550640800005,14.36722139900007],[121.04767010800003,14.368030608000023],[121.04870050900001,14.367407255000048],[121.04964003799999,14.369085894000015],[121.05083347700008,14.36915820400003],[121.05228134600009,14.370942866000064],[121.05178262900006,14.37137582600008],[121.05272138300005,14.373058479000067],[121.05255455200007,14.374777004000064],[121.05356228300002,14.375131126000042],[121.0539346600001,14.374094180000043],[121.05801511200002,14.38020651500005],[121.05536175900012,14.381853775000023],[121.05484315700006,14.386486386000058],[121.05344660100002,14.386912599000025],[121.05314072400007,14.388062651000046],[121.05369868600006,14.392682426000023],[121.05170922500008,14.394050265000029],[121.05208119500003,14.396428665000025],[121.05294256500008,14.396546112000067],[121.05097512300006,14.397121149000045],[121.05152571500001,14.397351156000076],[121.0510558950001,14.400113727000072],[121.05220847900011,14.402083488000077],[121.05122466600007,14.404290869000022],[121.05183913900011,14.40477558600002],[121.05123885500008,14.408546738000043],[121.05166359700003,14.409885096000044],[121.05312170300012,14.410223438000061],[121.05246104700007,14.410432939000032],[121.0526272640001,14.412072917000042],[121.05370500500011,14.413083649000045],[121.05311958200002,14.414227458000028],[121.05226297600007,14.414184635000028],[121.0521725750001,14.417054083000043],[121.05283278900002,14.418025539000043],[121.0521022700001,14.42062848000006],[121.05248769000004,14.42366420700006],[121.05406018400005,14.425967275000062],[121.05317649000006,14.42752728700003],[121.05333074100007,14.42632473100002],[121.05185992100006,14.426893553000069],[121.05263146200002,14.427945224000045],[121.05199755600005,14.428168297000067],[121.051736946,14.432629699000072],[121.05268091800008,14.438945465000074],[121.05167949500003,14.439392591000056],[121.05303724000011,14.43914340600003],[121.05378482200001,14.439944492000052],[121.05332836200013,14.440554627000042],[121.05431214100007,14.44430904500007],[121.05560813600005,14.44574111200006],[121.05397241500008,14.446450445000036],[121.05411940900002,14.451867062000078],[121.0527846760001,14.447051351000027],[121.0533802880001,14.454051363000076],[121.0542885750001,14.45625713000004],[121.05514036500007,14.456519028000058],[121.05395265200002,14.457436639000033],[121.05560131800006,14.462426996000033],[121.0564195280001,14.462754420000067],[121.05590417500004,14.46347530600008],[121.05709219600011,14.46367159300007],[121.05638640100004,14.46472014600005],[121.05738463300008,14.466723355000058],[121.05807749200007,14.467247433000066],[121.05751183400002,14.468304185000019],[121.05933679600004,14.468330431000027],[121.05997842700005,14.472333501000039],[121.06121598100003,14.474133134000054],[121.06244681700002,14.478911644000052],[121.06187158000012,14.48091006300007],[121.06319038000005,14.484954312000069],[121.06202550900004,14.486204032000046],[121.06217712200011,14.487713453000024],[121.06315490600001,14.48877318600006],[121.06713224600004,14.502572313000034],[121.06932934800011,14.50668639300005],[121.082278856,14.505057702000046],[121.08598790300005,14.506060288000073],[121.088098983,14.508424636000028],[121.09348982000006,14.520148077000046],[121.09458881600005,14.519616104000018],[121.0951388210001,14.520420050000038],[121.09383482400006,14.521060017000027],[121.09393882900008,14.52184096600007],[121.09620749500004,14.522171409000068],[121.1010505710001,14.527590912000047],[121.1024699400001,14.526136431000054],[121.10247570600008,14.524309028000063],[121.10264856800006,14.527728515000037],[121.10384570800011,14.530768855000076],[121.10339953006311,14.532179283723861],[121.10473370800003,14.53610740900007],[121.10570358400003,14.53577866000006],[121.10571950800012,14.54044141300005],[121.10700168300002,14.545701014000032],[121.10933757300005,14.545909922000023],[121.10972207600004,14.546624930000064],[121.1010147510001,14.553572467000036],[121.09912240200003,14.55331753900003],[121.09809347200009,14.554774911000038],[121.09818071600012,14.55859849700005],[121.09637116600004,14.559984404000033],[121.09808476800005,14.562368499000058],[121.09589522800002,14.563931524000054],[121.0968965510001,14.569254547000074],[121.10176341700003,14.573731944000032],[121.1009745340001,14.574820267000064],[121.10802203200001,14.578993337000044],[121.10905753300005,14.580946777000062],[121.10813154100005,14.583863249000048],[121.10864271800007,14.587715427000031],[121.10345673100007,14.588897737000025],[121.10369517200003,14.593668617000048],[121.10484580400009,14.593488223000069],[121.10475710500009,14.592228198000042],[121.10668952900004,14.59227576300003],[121.1067742680001,14.591662054000036],[121.11044978200005,14.592235448000055],[121.10944086300003,14.597255581000068],[121.10571949400003,14.603391834000034],[121.10219146300005,14.614759528000036],[121.10187866500006,14.620657343000058],[121.09758426800012,14.619772054000064],[121.10495984200008,14.621358134000046],[121.10383662500008,14.626708193000074],[121.10549838300007,14.632654354000065],[121.10780032000004,14.635984015000078],[121.1085360820001,14.636495850000076],[121.1111051140001,14.635857104000022],[121.11358356700009,14.63790040900006],[121.11540192100007,14.638314939000052],[121.11858878300006,14.636745531000033],[121.1190631940001,14.635478176000046],[121.12238165400002,14.636422483000047],[121.12280834600006,14.637744844000046],[121.12376552,14.637800583000056],[121.125227945,14.636074749000047],[121.12718665400007,14.635966894000035],[121.13001300700012,14.634344953000038],[121.13046946700003,14.63512509200007],[121.12847756300005,14.643444360000045],[121.13133300500012,14.653465219000047],[121.13460987400005,14.654541611000075],[121.13503641400007,14.657663518000053],[121.13064850100012,14.664855701000018],[121.13107957900002,14.667950382000074],[121.12574329600011,14.670101231000046],[121.12470417300005,14.668567503000082],[121.12501273300006,14.66685227000005],[121.12152568100008,14.666480991000071],[121.1200212870001,14.669060063000078],[121.12053310700004,14.670488563000047],[121.11927973400009,14.67232418500004],[121.11713018400008,14.67177504100005],[121.11595873400006,14.674033886000075],[121.11458231100005,14.673643236000032],[121.11534778900013,14.67240799900003],[121.11408497600006,14.671699956000056],[121.11176847800006,14.672789253000076],[121.11184086800006,14.67057953700004],[121.11043327400012,14.669902617000043],[121.10980520500004,14.670931547000068],[121.11057805500003,14.672975989000067],[121.10670234300007,14.675499389000038],[121.099626681,14.669651418000056],[121.10837328900004,14.677084282000063],[121.11191645300006,14.683993778000055],[121.11113734900005,14.690639048000039],[121.11161186300001,14.69595308200007],[121.11467589100003,14.697843459000072],[121.1188702610001,14.69748591500007],[121.12010187400006,14.698593123000025],[121.1204377690001,14.701429566000058],[121.11640583700012,14.705626875000062],[121.11599242800001,14.709234545000077],[121.11791254900004,14.712185830000061],[121.11977186300008,14.711820449000072],[121.12155201800012,14.710533670000068],[121.12160717900008,14.709491034000049],[121.12281391200008,14.709291985000053],[121.12257754100004,14.707488107000072],[121.12375939200001,14.707338821000066],[121.12484171900006,14.71012550100005],[121.1253437890001,14.720708356000044],[121.12666757200009,14.721929496000026],[121.13022932500009,14.722638601000032],[121.13146900000002,14.723613300000066],[121.12949386600009,14.729312865000056],[121.12926705300002,14.728125032000037],[121.12666645200012,14.726618124000026],[121.12515638600009,14.726897766000036],[121.12379669500002,14.728356507000054],[121.12154734200008,14.725103087000038],[121.12145707600007,14.726492812000059],[121.12032009500001,14.726522029000028],[121.11898921000011,14.729549507000057],[121.11805757700007,14.72954936100007],[121.11861342300007,14.73280053800005],[121.12182039100003,14.734938620000039],[121.1224444820001,14.737935082000035],[121.11946131400009,14.73975553400004],[121.11813941200012,14.739335796000034],[121.11776424000004,14.746158470000067],[121.11874010700002,14.747603487000049],[121.11825046600006,14.749586381000029],[121.12082632300007,14.752152299000043],[121.1214417990001,14.757590123000055],[121.12314378300006,14.757847832000033],[121.12341227400009,14.759713458000022],[121.12537554800008,14.760804572000037],[121.12610219000011,14.762687529000058],[121.12465190100012,14.766150471000056],[121.12669070800005,14.767448771000034],[121.12998075000009,14.772627813000046],[121.13324004300011,14.773120168000046],[121.1349717920001,14.776730445000059],[121.13409627500006,14.777632020000054],[121.13162814600003,14.776326252000043],[121.12883497500002,14.77756299700008],[121.12456953800006,14.774520612000066],[121.12369279100005,14.775541844000037],[121.12119922200007,14.776029560000044],[121.11842563900008,14.773382847000047],[121.11465265300001,14.77216348600007],[121.11324457400008,14.76853813100007],[121.11029895500008,14.765486012000054],[121.10968224500004,14.763837527000021],[121.10491462400012,14.762656063000058],[121.10197788400001,14.765484873000052],[121.09972917900006,14.765222305000064],[121.09965660098186,14.764200613471392],[121.09935888700012,14.771236387000046],[121.09843658800003,14.771304286000031],[121.09798881600011,14.76921842700005],[121.09665808700004,14.76841914600004],[121.09523367300005,14.768506099000033],[121.09526359200005,14.770466895000029],[121.09449374200005,14.771014739000066],[121.09335466400013,14.770368447000065],[121.0928342100001,14.768191757000068],[121.09177302800003,14.767281383000066],[121.09064479400001,14.767453811000047],[121.08946408500003,14.76948084600002],[121.08710074800001,14.767972939000064],[121.08627529500006,14.769073169000025],[121.08797392500003,14.77065819600006],[121.08660551100002,14.771540849000077],[121.0864123670001,14.773704547000023],[121.08373347800013,14.77305449400006],[121.08228369600012,14.77485850200003],[121.08182955100006,14.77205017600005],[121.08093383800008,14.771124569000047],[121.08057925900005,14.773136531000029],[121.07762784800003,14.773434388000055],[121.07831130300008,14.774678754000034],[121.07718593300001,14.776649712000053],[121.07670666200012,14.77495232100006],[121.07207683400007,14.771780896000049],[121.07265401000005,14.774639440000044],[121.07150042900004,14.775874928000059],[121.07078284700005,14.775949840000063],[121.0701767710001,14.774535296000067],[121.0666948920001,14.773695643000059],[121.06706325800008,14.776512402000037],[121.06549843300002,14.777533222000045],[121.06525060000001,14.776387673000041],[121.06289722200005,14.774850638000032],[121.06236617900004,14.77588061600005],[121.06281189200001,14.778688669000076],[121.06161036600007,14.779321996000016],[121.05975584200007,14.776918612000028],[121.05921910000006,14.78073179800003],[121.05734594900002,14.780208452000068],[121.05542050700002,14.782563240000055],[121.05433392900011,14.781191037000044],[121.05351181800006,14.782802039000046],[121.04992521500003,14.783156044000066],[121.04901756800008,14.781779997000056],[121.0481032350001,14.782531498000026],[121.04394383900002,14.780403640000033],[121.0418419670001,14.781663160000052],[121.04130584100005,14.783938283000055],[121.03841659800003,14.785247081000023],[121.03639193000005,14.78515968900006],[121.03589170600003,14.783681028000045],[121.0342391370001,14.78471313500006],[121.03388966500006,14.783564930000065],[121.03224722300001,14.782899105000071],[121.03047992400003,14.784200424000064],[121.03043202400012,14.781451529000035],[121.02832971800001,14.781832778000021],[121.02768842200008,14.779842706000064],[121.02487615000007,14.779236322000035],[121.02614724300008,14.778104109000026],[121.02809062000006,14.777862723000055],[121.02581714200007,14.776249918000074],[121.02735673500001,14.77548926900005],[121.02730961300006,14.774709380000047],[121.02354489900006,14.774142135000035],[121.02385302800008,14.77264812900006],[121.02618289400004,14.772297328000038],[121.0266373400001,14.771406580000077],[121.02402399100004,14.763034879000028],[121.00926151600005,14.757005941000044],[121.00833460600008,14.754411855000063],[121.00088948275408,14.75352620285767],[120.99809005400006,14.756260767000073],[120.99781994400006,14.758378777000072],[120.99686363500008,14.756943885000055],[120.99481552800013,14.756351613000046],[120.9901370550001,14.757063631000053],[120.98955694900008,14.75774144700006],[120.98898521500007,14.757223791000056],[120.98953805300003,14.756096671000021],[120.9886347470001,14.754612790000069],[120.98925800900008,14.753780507000046],[120.98582462300011,14.75074766600005],[120.98619261700004,14.749474523000055],[120.98482711300005,14.745878190000044],[120.98162907100004,14.740755374000058],[120.98157778000008,14.737709083000023],[120.98051462800004,14.737421458000023],[120.98106158100006,14.735977454000023],[120.97852281100006,14.73480671900006],[120.98338951500011,14.725953012000048],[120.98249589400008,14.725149421000031],[120.98154498400004,14.725567694000063],[120.98097258100007,14.724467510000068],[120.97784238200006,14.724117956000036],[120.97559082500003,14.725663236000061],[120.97609159500007,14.724584295000056],[120.97467274300004,14.724927431000026],[120.97420296100007,14.723819210000045],[120.97269512000004,14.724105380000026],[120.97015428600004,14.721655536000073],[120.96775241700006,14.723889268000047],[120.96317694600009,14.72146275500006],[120.96275318500012,14.719850642000038],[120.95955042400011,14.719873626000034],[120.95593720500005,14.72372090900006],[120.95653880300007,14.724631223000072],[120.95408670700012,14.728774911000071],[120.95242117300005,14.729082094000033],[120.95167826200007,14.731952406000062],[120.9492786620001,14.73419668900004],[120.94371322100007,14.733749728000076],[120.94139839400007,14.737112462000027],[120.93890695100004,14.737181503000045],[120.93633694300001,14.736818515000042],[120.9349118020001,14.733277761000068],[120.92701620000004,14.736080406000042],[120.92596146500011,14.734299748000069],[120.92573807300005,14.732636787000047],[120.92664292400002,14.73295103600003],[120.93057831200008,14.72495208600003],[120.92938202800009,14.72431209100006],[120.93458263100003,14.718225251000035],[120.93571315800011,14.714871993000035],[120.95183049900004,14.695045109000034],[120.95312750500011,14.694240067000067],[120.95614066100006,14.695989081000048],[120.94533687500007,14.688489937000043],[120.94315945500011,14.68961009700007],[120.93398099400008,14.69783727600003],[120.93012120100002,14.70222216800005],[120.92733208400013,14.702649063000022],[120.92637820500009,14.705351413000075],[120.91841488700004,14.712960826000025],[120.9176486350001,14.712146692000031],[120.91490650500009,14.712337047000068],[120.91416393100006,14.707311064000066],[120.9114163600001,14.704152596000034],[120.90639761800003,14.700691280000054],[120.91105482200008,14.696283093000037],[120.91224249700008,14.696698459000062],[120.91225149700007,14.69610360800005],[120.91292970100004,14.696845025000073],[120.91285466900001,14.696533518000026],[120.91214376200003,14.695637648000062],[120.91266320300008,14.69502827100007],[120.92509648000008,14.684334701000068],[120.92786631700005,14.678325805000043],[120.93127538100008,14.67604394500006],[120.93049604900013,14.674092445000044],[120.93191083600004,14.671941523000044],[120.93885589500009,14.664898570000048],[120.93873126300002,14.66365359300005],[120.93962763800005,14.663264043000028],[120.93783681200011,14.661813446000055],[120.93895974500003,14.662572700000052],[120.93926392800006,14.661808358000028],[120.93968389500003,14.662391424000077],[120.94080838400009,14.661686211000076],[120.94800195000005,14.65223296200003],[120.9478347700001,14.652262733000045],[120.94709333900005,14.653290427000059],[120.94787969400011,14.652075832000033],[120.94687617500007,14.651077143000068],[120.94862465100005,14.64847039700004],[120.94747486300002,14.647603288000026],[120.94832025500011,14.645005722000063],[120.9468020400001,14.643973215000074],[120.94840356200007,14.644917498000044],[120.94903662700005,14.643991979000072],[120.94762641800003,14.642902966000067],[120.94915991700009,14.643806734000064],[120.952553243,14.638988209000049],[120.95185523800001,14.63843388400005],[120.95262460100002,14.638919160000054],[120.95458039000005,14.63686805300005],[120.9537858550001,14.63609008900005],[120.94716981700003,14.636879562000049],[120.94904331900011,14.636553893000043],[120.94898265100005,14.635258663000057],[120.95079821700007,14.63518903900007],[120.94901616100005,14.635275713000055],[120.9491520150001,14.636504773000071],[120.95269211400013,14.636144230000072],[120.95184983700005,14.635194773000025],[120.95265638400008,14.63500401300007],[120.95357375600008,14.635176373000032],[120.95266034800011,14.63521257600007],[120.95280882900012,14.636098779000069],[120.95526789100008,14.635392579000042],[120.95562882600008,14.636079444000071],[120.95686101200012,14.635560863000022],[120.95698790300004,14.633960806000061],[120.95779251100011,14.633909253000073],[120.96135461400002,14.636398148000067],[120.95704763600008,14.633331012000045],[120.95330759100011,14.634384503000035],[120.9414001470001,14.634242946000033],[120.94330538200006,14.630862833000034],[120.94555750200004,14.629815284000076],[120.94507653100004,14.62939326200007],[120.95928604800008,14.629389533000051],[120.95957822100002,14.626014634000057],[120.95714752900005,14.628236068000037],[120.9550674730001,14.62821831700006],[120.95384122300004,14.628153188000054],[120.95359576700002,14.625833852000028],[120.95510508900009,14.620824032000034],[120.958017788,14.620372296000024],[120.95544726900003,14.619220613000039],[120.95656755400013,14.61955423100005],[120.95687171600004,14.613395350000072],[120.95937326900004,14.61359025300004],[120.95945258300003,14.612694781000073],[120.9574088060001,14.61252748900006],[120.95745139800012,14.61179362400003],[120.95947552300005,14.611948483000049],[120.95957395300003,14.610712556000065],[120.95757069400008,14.610558390000051],[120.95761374200004,14.609838795000032],[120.95967300200005,14.609967048000044],[120.95976067100001,14.608734999000033],[120.95775921300005,14.608591174000026],[120.95781545400008,14.607856417000049],[120.95983265300005,14.607991991000066],[120.95993462700005,14.60674976900003],[120.95792487000007,14.606617846000066],[120.95797906800011,14.605874592000072],[120.95999460700011,14.606008096000036],[120.96009658300011,14.604794893000077],[120.958097069,14.604634505000035],[120.95815044700008,14.603890367000078],[120.96014457600008,14.604044889000019],[120.96024106900006,14.602883813000062],[120.95774142300002,14.602685139000066],[120.95780544900003,14.601813620000028],[120.96029789700005,14.602000235000046],[120.9604671830001,14.600846682000054],[120.95633249800007,14.60072213600006],[120.94398653000007,14.617861197000023],[120.94392362300005,14.617777639000051],[120.94807151700002,14.612045703000032],[120.94825760300013,14.61113524600006],[120.94688490200006,14.609943166000056],[120.94776581500004,14.607689395000017],[120.95012025000004,14.604341423000053],[120.95087451600011,14.604560118000052],[120.95190838400003,14.603160679000041],[120.95371153300005,14.602576196000031],[120.95421043900002,14.601105148000048],[120.94250699700002,14.598547707000021],[120.9351555180001,14.60286315700006],[120.93279649300007,14.602898354000047],[120.93510570200012,14.60279721300003],[120.94261376800013,14.598192125000025],[120.94337158800012,14.594770830000074],[120.95605653400003,14.596383241000071],[120.96677920700006,14.596419792000063],[120.96752885900004,14.59531896900006],[120.96339275500009,14.595109377000027],[120.96318530900011,14.594240662000056],[120.96266700600007,14.595074001000054],[120.95969974600008,14.59490701100003],[120.95386802400004,14.59111910000007],[120.95388104100006,14.590300633000028],[120.95904292500006,14.584651975000043],[120.95575447200008,14.578226624000019],[120.95567029200005,14.57249071900003],[120.95578642800001,14.578200548000037],[120.96128198000008,14.588906059000061],[120.96160772100006,14.592231017000074],[120.9618948530001,14.590518759000071],[120.96281132400009,14.590239421000035],[120.96243202900007,14.592930093000065],[120.96305733500002,14.593822718000073],[120.96297920000008,14.592800541000031],[120.96494701200002,14.592012283000033],[120.96483267500001,14.591103529000067],[120.96195479200001,14.586560674000054],[120.9647106340001,14.588574262000067],[120.96573570500003,14.587513071000043],[120.96331953300013,14.585188070000076],[120.96228153600009,14.582882444000063],[120.96637735100002,14.586796698000054],[120.96731038100005,14.585849845000045],[120.9649026830001,14.583533677000048],[120.9655833280001,14.58288716200008],[120.9680974050001,14.585267167000042],[120.96904372900006,14.584282120000065],[120.96626684700003,14.581578763000035],[120.9668058630001,14.58105025300006],[120.96946961400009,14.583628082000075],[120.97073338500002,14.582781201000042],[120.96819347700011,14.580262257000072],[120.96887358700008,14.579594577000027],[120.9727582050001,14.583148978000054],[120.97306381800001,14.582593255000067],[120.97185370800003,14.581412453000043],[120.97337995500006,14.582178296000054],[120.9721648090001,14.581435667000044],[120.97214772800008,14.57907302800004],[120.97303153200004,14.578101288000026],[120.97396582500005,14.578356860000044],[120.9743701540001,14.577384429000062],[120.97557632200007,14.578445250000076],[120.9770793890001,14.57585497400003],[120.97942024000008,14.575287630000043],[120.98546445900003,14.562417100000062],[120.98387829400009,14.56144704600007],[120.98271547600007,14.561764828000035],[120.98362726100002,14.561141806000022],[120.98537334100001,14.561863280000065],[120.98463542700006,14.561447696000073],[120.98565243400003,14.560678026000062],[120.98510948800003,14.560271794000071],[120.98678599600011,14.560332775000067],[120.98235756300005,14.558161812000037],[120.97991308300006,14.562424181000038],[120.98019641200007,14.56371426900006],[120.97977547000006,14.562418400000071],[120.98228129900006,14.558095897000044],[120.97866238500002,14.556108181000065],[120.97852490500009,14.557398260000067],[120.97932272600008,14.55828155200004],[120.97892964100004,14.558014133000025],[120.978482115,14.55742563500007],[120.97840788000009,14.55654097800004],[120.9786104980001,14.55606490000003],[120.97758533600006,14.555501485000036],[120.97863819300004,14.555508053000041],[120.98198633100004,14.543541662000049],[120.98205385700011,14.543570590000058],[120.98189305600012,14.54421890800006],[120.98280159700005,14.542755799000076],[120.98050481100006,14.541906656000036],[120.97979833800004,14.542536864000056],[120.98035730700008,14.541872990000057],[120.97866733200009,14.54150651400005],[120.97911243400006,14.530094101000033],[120.980154243,14.530113934000042],[120.97930920488021,14.529597210217911],[120.97912937900003,14.529575066000064],[120.97936814600008,14.519215310000046],[120.98059530000012,14.518783126000072],[120.97932861200002,14.518809849000036],[120.97783106600002,14.51432538400007],[120.974211921,14.508107632000076],[120.97787544100004,14.506091518000064],[120.98974188100011,14.502592480000034],[120.98738114800004,14.495045624000056],[120.98568709900009,14.492326625000029],[120.98450936600011,14.491832116000069],[120.98285485100007,14.491746600000054],[120.98117700500006,14.492935074000059],[120.982784046,14.496582470000021],[120.9847859360001,14.496337582000026],[120.98479287900012,14.496776956000074],[120.98351322600001,14.496518477000052],[120.9839925880001,14.497616064000052],[120.98481817800007,14.497457275000045],[120.98421758300003,14.49786559500006],[120.98527366400005,14.49941806100003],[120.9874522130001,14.500643524000054],[120.98806607000006,14.50195394800005],[120.98483239300003,14.503318093000075],[120.98177996000004,14.502007941000041],[120.98218214000009,14.499754870000062],[120.98119306600006,14.493461296000078],[120.97561671000005,14.492695520000042],[120.97680438400006,14.492157073000044],[120.97626195400005,14.49011177400007],[120.97868322400006,14.488851167000059],[120.97886475100007,14.489325276000041],[120.97826722300012,14.490043603000062],[120.9786749860001,14.490281113000037],[120.97894463700004,14.489466868000022],[120.9790661840001,14.490279723000071],[120.97810979000008,14.490953085000058],[120.97825189900006,14.491131527000048],[120.97921904700002,14.490581251000037],[120.97912682900007,14.492237965000072],[120.98063119500011,14.492769786000052],[120.98250344700013,14.491679747000033],[120.98077125500004,14.487464576000036],[120.97775402800006,14.481958207000046],[120.97346348500002,14.478250018000042],[120.97183011200002,14.47815088400006],[120.97118600400006,14.477618671000076],[120.97131522200003,14.476933460000055],[120.97174321300007,14.477973517000066],[120.97253086300009,14.477772362000056],[120.9699304500001,14.475450371000019],[120.97158240100009,14.471621217000065],[120.97063334100005,14.470976276000044],[120.96915469600003,14.471956796000027],[120.9681106810001,14.471218677000017],[120.96751874800009,14.469896131000043],[120.96934841500003,14.469296738000027],[120.96957153700008,14.468387839000055],[120.96595096500006,14.465177050000019],[120.97035250300007,14.455107274000055],[120.9697000120001,14.452792084000066],[120.96985207100012,14.446804095000058],[120.9719555270001,14.444219225000039],[120.97300846900008,14.44075715100007],[120.97915620900005,14.435105431000066],[120.9840362450001,14.433506927000057],[120.9845876480001,14.432021193000026],[120.98402865700007,14.43050555400004],[120.98525424900005,14.430460021000044],[120.98444224700006,14.429325495000057],[120.98597740600007,14.427827537000042]],[[120.97365631500008,14.48652128200007],[120.97201762700001,14.48140488400003],[120.97250112300004,14.481671801000061],[120.97860030600009,14.488729910000076],[120.97774344000004,14.488597135000074],[120.9780115530001,14.489099628000075],[120.97622476800008,14.490073891000065],[120.97365631500008,14.48652128200007]]],[[[120.9694257061986,14.678932275474397],[120.96942574600007,14.678932285000034],[120.97163985400005,14.677919421000068],[120.9694257061986,14.678932275474397]]],[[[120.9835027380001,14.670754548000048],[120.9861644906614,14.668950535202434],[120.98569540800008,14.66879355100002],[120.9835027380001,14.670754548000048]]],[[[120.99181603700004,14.672723053000027],[120.99620630915983,14.675484774984469],[120.99614758700011,14.67531247400006],[120.99181603700004,14.672723053000027]]],[[[120.99812293200011,14.680198621000045],[120.99954453500004,14.68428212100002],[120.99967539381629,14.68438512102968],[120.99812293200011,14.680198621000045]]],[[[120.99990213597553,14.684563591611912],[121.00292322100006,14.68694151200003],[121.0043180790001,14.687246274000069],[120.99990213597553,14.684563591611912]]],[[[121.0063778980001,14.686354851000031],[121.01179279600001,14.68221948800004],[121.0043180790001,14.687246274000069],[121.0063778980001,14.686354851000031]]],[[[121.01968877276444,14.69150616393574],[121.02093697000008,14.691351456000064],[121.02127634309657,14.690923655459192],[121.01968877276444,14.69150616393574]]],[[[121.02237773261452,14.690519535580412],[121.02380394032373,14.69096383366128],[121.02373766200003,14.690761253000062],[121.02257449100011,14.690437151000024],[121.02265398600002,14.687140174000033],[121.02256949900003,14.69044917300005],[121.02237773261452,14.690519535580412]]],[[[120.99127371500005,14.639904883000044],[120.99316687298442,14.637639551363478],[120.99229858100013,14.637915434000037],[120.99127371500005,14.639904883000044]]],[[[120.99333200831101,14.637441952281556],[120.99347082900012,14.637275841000074],[120.99313591600004,14.636168197000075],[120.99333200831101,14.637441952281556]]],[[[120.99197344400011,14.636527028000048],[120.99305930000003,14.635932792000059],[120.98828373000003,14.637493583000033],[120.98675551800012,14.630044934000065],[120.98829794300002,14.627372943000069],[120.98676401500006,14.626508566000041],[120.98325297800012,14.631547337000029],[120.9809577330001,14.631170838000061],[120.98072558400008,14.632552264000026],[120.98244892200012,14.636246578000051],[120.98233716921199,14.63663130235837],[120.9849180020001,14.637002450000065],[120.98398126100005,14.63800423900005],[120.98536951000006,14.639142744000027],[120.98508259400012,14.63997936800007],[120.98886937800013,14.639798129000043],[120.98820503500008,14.63773415400004],[120.99313591600004,14.636168197000075],[120.99197344400011,14.636527028000048]]],[[[120.98988594100001,14.62564046500006],[120.98992106751614,14.625754392730991],[121.01962265700001,14.603057785000031],[120.98988594100001,14.62564046500006]]],[[[121.01982298313108,14.603383626760492],[121.01969614277996,14.602755090645514],[121.01962265700001,14.603057785000031],[121.01982298313108,14.603383626760492]]],[[[121.01982585858248,14.602220779910317],[121.02358857800006,14.599481721000071],[121.0236194149835,14.599422781841286],[121.01990713700002,14.601885987000058],[121.01982585858248,14.602220779910317]]],[[[121.02476665174866,14.59723005212781],[121.02603883000006,14.59479852000004],[121.02672394617795,14.595515062437205],[121.02544239200006,14.59252214500003],[121.02609781400008,14.594626104000044],[121.02476665174866,14.59723005212781]]],[[[121.01713273940592,14.581128335204776],[121.01761120300011,14.579408116000026],[121.01707494100003,14.581060497000067],[121.01713273940592,14.581128335204776]]],[[[121.03388218291278,14.567623019555178],[121.0374939826446,14.567446517033789],[121.03678069000011,14.567277167000043],[121.03416050400004,14.567387959000026],[121.03388218291278,14.567623019555178]]],[[[121.04316523382111,14.568659070220036],[121.04351177400008,14.56873328200004],[121.04739583530338,14.568343141607048],[121.04709986900001,14.568297716000073],[121.04316523382111,14.568659070220036]]],[[[121.04230199565086,14.558917500945876],[121.04224017440009,14.558658942365415],[121.04213217400002,14.558982793000043],[121.04230199565086,14.558917500945876]]],[[[121.0335690500001,14.533937574000051],[121.03052366182011,14.534602060783095],[121.0312109140001,14.53492598400004],[121.0335690500001,14.533937574000051]]],[[[121.02920950808601,14.533982659466515],[121.02651239300008,14.532098977000032],[121.02530804858283,14.53214378088621],[121.02920950808601,14.533982659466515]]],[[[121.02498032257786,14.53198931347978],[121.0248670640001,14.531448720000073],[121.0222366910001,14.530536428000062],[121.02045105600008,14.52985453000002],[121.02498032257786,14.53198931347978]]],[[[121.04585724300011,14.481629635000047],[121.04820302200004,14.47520881500003],[121.04812903639093,14.474990092753789],[121.04585724300011,14.481629635000047]]],[[[121.04658499200849,14.469010201624858],[121.04668523600003,14.467856441000034],[121.04675070952231,14.467844560377776],[121.04568175900012,14.465679895000047],[121.04658499200849,14.469010201624858]]],[[[121.04625782203259,14.461207734176469],[121.04633027200009,14.46064528200003],[121.04530549000003,14.459299420000038],[121.04625782203259,14.461207734176469]]],[[[121.01163612800009,14.398984211000029],[121.00936658932406,14.391555484525306],[121.00934865700003,14.391677029000045],[121.01163612800009,14.398984211000029]]],[[[121.01339405443687,14.379722013479913],[121.01349824300007,14.379545585000072],[121.01255710800002,14.374886601000075],[121.01339405443687,14.379722013479913]]],[[[120.99918316682357,14.561453640197985],[120.99797362709819,14.561591961997696],[120.99898845359185,14.561881467131156],[120.9988221530001,14.56171635700002],[120.99918316682357,14.561453640197985]]],[[[120.99894695500008,14.559740926000071],[120.99934822418486,14.561333524736229],[120.9994106050001,14.561288129000046],[120.99897173894323,14.559702884780636],[120.99894695500008,14.559740926000071]]],[[[121.00199386700002,14.552260236000055],[121.00182893674176,14.55249133079346],[121.00712716300006,14.550061938000056],[121.00199386700002,14.552260236000055]]],[[[121.00832580980205,14.548678469944598],[121.00764785000003,14.548907984000035],[121.00712716300006,14.550061938000056],[121.00832580980205,14.548678469944598]]],[[[121.00928594979642,14.547554190603794],[121.0092715677115,14.547586884121534],[121.00929099700011,14.547564459000057],[121.00928594979642,14.547554190603794]]],[[[121.00857109000003,14.54569771900003],[121.0086511324486,14.54590137731358],[121.00969852000003,14.54356234600004],[121.00857109000003,14.54569771900003]]],[[[121.01294378600006,14.539075190000068],[121.01303735600005,14.538516177000082],[121.01301600800004,14.533377567000056],[121.01294378600006,14.539075190000068]]],[[[121.01203042832002,14.529978715366811],[121.01189583200005,14.52994485000005],[121.01301600800004,14.533377567000056],[121.01203042832002,14.529978715366811]]],[[[121.01670134700011,14.52957074000005],[121.01655574939709,14.529739793574223],[121.01843568900004,14.530512884000071],[121.01670134700011,14.52957074000005]]],[[[120.99813978400003,14.53308016600005],[120.99839452344892,14.532805452107636],[120.99652843500007,14.533448498000041],[120.99813978400003,14.53308016600005]]],[[[120.99942042900011,14.531699104000044],[120.99956591393635,14.530345181444055],[120.99898646944648,14.532167090873086],[120.99942042900011,14.531699104000044]]],[[[120.99837602780447,14.527323476192059],[120.99835162400007,14.527493621000074],[120.9996693414234,14.529382656998282],[120.99971686700007,14.528940371000035],[120.99837602780447,14.527323476192059]]],[[[121.00113473700003,14.51202685100003],[121.00110766935798,14.512009347233576],[121.00109770946182,14.512320514231106],[121.00113473700003,14.51202685100003]]],[[[120.99313652000002,14.476216641000065],[120.99661870900003,14.474325047000036],[120.9966438907217,14.474293244500121],[120.99313652000002,14.476216641000065]]],[[[120.9967843095404,14.47411590676566],[121.00221383300004,14.46725885300003],[120.99799104300008,14.471612477000066],[120.9967843095404,14.47411590676566]]],[[[121.01542911000001,14.44517801400002],[121.02068568242748,14.43542271309776],[121.02064535500007,14.435414469000024],[121.01542911000001,14.44517801400002]]],[[[120.97429032200012,14.635803139000075],[120.97637970412582,14.63522713387267],[120.96866754067749,14.635588893145037],[120.96866786697174,14.635592529211001],[120.97429032200012,14.635803139000075]]],[[[120.97990545500012,14.63553062200003],[120.97776629900011,14.635162092000028],[120.97684909902803,14.635205115672534],[120.97990545500012,14.63553062200003]]],[[[120.97119288500006,14.60599788500002],[120.97247344900006,14.610735285000027],[120.97416559700002,14.610432554000058],[120.9733812080001,14.606507103000068],[120.97119288500006,14.60599788500002]]],[[[120.95789775600008,14.649712306000023],[120.96225962600012,14.645016088000034],[120.96376394600009,14.646345454000027],[120.96226369762307,14.644879262719646],[120.95789775600008,14.649712306000023]]],[[[120.97275416100001,14.662078752000069],[120.97277169204166,14.662072198126095],[120.96918050400005,14.659688274000077],[120.96885278939135,14.659740080737274],[120.97275416100001,14.662078752000069]]],[[[120.97364731359677,14.661744852299476],[120.97497585973996,14.661248183352829],[120.9749237860001,14.66123036600004],[120.97364731359677,14.661744852299476]]],[[[120.97539499230503,14.66139159215731],[120.97772968400012,14.662349051000033],[120.97780095263468,14.66221480639372],[120.97539499230503,14.66139159215731]]],[[[120.98256190200004,14.660451592000074],[120.98795681970246,14.66262588179826],[120.98786174400006,14.662557692000064],[120.98256190200004,14.660451592000074]]],[[[120.98822325615403,14.662816974237286],[120.98963158400011,14.664401836000025],[120.99081660597676,14.664676965766082],[120.98822325615403,14.662816974237286]]],[[[120.99606155514192,14.668381614446952],[120.99615448200008,14.668460463000029],[121.00039724400007,14.669434518000056],[120.99606155514192,14.668381614446952]]],[[[120.99977909574099,14.671017398608601],[120.99685945400006,14.673153330000048],[120.99961476900012,14.671438187000032],[120.99977909574099,14.671017398608601]]],[[[120.95049602600011,14.654552570000021],[120.94744168900002,14.665518086000077],[120.9508557778221,14.654155484390078],[120.95049602600011,14.654552570000021]]],[[[121.01701624600004,14.70898151000006],[121.01463605183092,14.709423240845249],[121.01423439261119,14.710809843658135],[121.01529067400007,14.70946094300007],[121.01701624600004,14.70898151000006]]],[[[121.01881972561475,14.706873271809297],[121.01715600000011,14.70700166300003],[121.01889634600002,14.707042047000074],[121.01881972561475,14.706873271809297]]],[[[121.0174363340001,14.701882596000074],[121.01779731631392,14.703097021706212],[121.01797122281411,14.700577294868722],[121.0174363340001,14.701882596000074]]],[[[121.01807748700003,14.700317976000068],[121.01802359557007,14.700449488461443],[121.02321862300006,14.695756770000058],[121.02392966459377,14.694490227210242],[121.01807748700003,14.700317976000068]]],[[[121.0240635991686,14.691757484700602],[121.02450378143062,14.693467581634131],[121.02457916200002,14.693333310000071],[121.0240635991686,14.691757484700602]]],[[[121.05271662625816,14.567080875767347],[121.05014667860348,14.56806682900476],[121.0513976430001,14.56794117400006],[121.05271662625816,14.567080875767347]]],[[[121.05997170100012,14.58181373000002],[121.05595320400005,14.576604542000045],[121.05996308183498,14.58204213747526],[121.05997170100012,14.58181373000002]]],[[[121.07325746700009,14.593772241000064],[121.05966011600003,14.59007071800005],[121.05728732400006,14.589617128000048],[121.07325746700009,14.593772241000064]]],[[[121.0785429467129,14.61600988388898],[121.07853358866882,14.614933725660899],[121.07836434700003,14.615291516000065],[121.0785429467129,14.61600988388898]]],[[[121.08146290500007,14.620415279000039],[121.07887550118025,14.61734749214616],[121.07903023100006,14.617969850000065],[121.08146290500007,14.620415279000039]]],[[[121.05448414400007,14.467641169000046],[121.0488933690001,14.466968036000026],[121.04708971912716,14.467783044746465],[121.05049916100008,14.467164378000064],[121.05448414400007,14.467641169000046]]],[[[121.06650121899511,14.559864013566115],[121.0665839290001,14.559827276000025],[121.066592665212,14.559764099097148],[121.06650121899511,14.559864013566115]]],[[[121.06673223649622,14.558754773593467],[121.0668738610001,14.557730600000067],[121.06472171709355,14.552832498516638],[121.06673223649622,14.558754773593467]]],[[[121.06436655310425,14.551786311725706],[121.06447701229382,14.551478827231914],[121.06429383600005,14.551572113000079],[121.06436655310425,14.551786311725706]]],[[[121.0671018170001,14.550142099000025],[121.06746195000004,14.54914952700005],[121.06738239221235,14.549077387058936],[121.0671018170001,14.550142099000025]]],[[[121.06112402757158,14.54430910772597],[121.062464351,14.542771136000052],[121.06091744900004,14.544062659000069],[121.06112402757158,14.54430910772597]]],[[[121.06616482737273,14.53794991195921],[121.06626351570479,14.537871801578337],[121.0662306270001,14.537870743000044],[121.06616482737273,14.53794991195921]]],[[[121.07515078900008,14.543494205000057],[121.07793167609987,14.546746809647136],[121.0779772529864,14.546755891194884],[121.07515078900008,14.543494205000057]]],[[[121.07870600199873,14.546901100081552],[121.08079134364272,14.54731662056025],[121.080071502,14.54666790400006],[121.07870600199873,14.546901100081552]]],[[[121.02367690800008,14.613831900000038],[121.025902652,14.612299970000036],[121.02364415936363,14.613769264636103],[121.02367690800008,14.613831900000038]]],[[[121.02702082752387,14.595825561721876],[121.02712457300004,14.595934066000043],[121.02772736167297,14.595518178410556],[121.02702082752387,14.595825561721876]]],[[[121.03188319751348,14.59265090397822],[121.03468091900004,14.590720646000024],[121.03189606700006,14.592607912000062],[121.03188319751348,14.59265090397822]]],[[[121.01481318200001,14.713921421000068],[121.01416711124156,14.711042111540435],[121.01414158700004,14.711130226000023],[121.01481318200001,14.713921421000068]]],[[[121.01886007900009,14.720540511000024],[121.01769830200008,14.71948370900003],[121.0189930133241,14.720957243162818],[121.01886007900009,14.720540511000024]]],[[[121.09952975800002,14.762415026000038],[121.09925799387943,14.762466508537614],[121.09953753402566,14.76252449026641],[121.09952975800002,14.762415026000038]]]]}}]}