{"type":"FeatureCollection","features":[{"type":"Feature","properties":{"name":"Manila Bay","area_type":"KBA"},"geometry":{"type":"Polygon","coordinates":[[[120.92374,14.68585],[120.92515,14.68306],[120.92523,14.68189],[120.92651,14.67984],[120.92835,14.67815],[120.92992,14.67756],[120.9292,14.67677],[120.92914,14.6756],[120.93055,14.67345],[120.93486,14.66955],[120.9375,14.66641],[120.93737,14.66516],[120.93827,14.66477],[120.93648,14.66332],[120.9376,14.66408],[120.93791,14.66332],[120.93833,14.6639],[120.93945,14.6632],[120.94664,14.65425],[120.94652,14.65375],[120.94569,14.65476],[120.94652,14.65359],[120.94552,14.65259],[120.94655,14.65179],[120.94727,14.65033],[120.94612,14.64911],[120.9469,14.64797],[120.9463,14.64754],[120.94696,14.64651],[120.94544,14.64548],[120.94705,14.64643],[120.94768,14.6455],[120.94627,14.64441],[120.9478,14.64532],[120.95119,14.6405],[120.9505,14.63994],[120.95127,14.64043],[120.95256,14.63851],[120.95322,14.63834],[120.95243,14.6376],[120.9458,14.63833],[120.94768,14.63806],[120.94762,14.63677],[120.94866,14.63657],[120.94943,14.63672],[120.94766,14.63678],[120.94779,14.63801],[120.95133,14.63765],[120.95127,14.63692],[120.95049,14.6367],[120.9513,14.63651],[120.95222,14.63668],[120.9513,14.63672],[120.95145,14.63761],[120.95376,14.63741],[120.95391,14.6369],[120.95427,14.63759],[120.95565,14.63485],[120.95195,14.63589],[120.9401,14.63576],[120.94111,14.63341],[120.94286,14.63154],[120.9442,14.63132],[120.94373,14.6309],[120.94484,14.63134],[120.95725,14.63128],[120.95829,14.62809],[120.95786,14.62752],[120.95579,14.62974],[120.9525,14.62967],[120.95268,14.62744],[120.95224,14.62734],[120.95274,14.62718],[120.95227,14.62703],[120.95287,14.62667],[120.95375,14.62233],[120.95666,14.62188],[120.95409,14.62073],[120.95521,14.62106],[120.95551,14.6149],[120.95801,14.6151],[120.95809,14.6142],[120.95605,14.61403],[120.95609,14.6133],[120.95812,14.61346],[120.95821,14.61222],[120.95621,14.61207],[120.95625,14.61135],[120.95831,14.61147],[120.9584,14.61024],[120.9564,14.6101],[120.95646,14.60936],[120.95847,14.6095],[120.95858,14.60826],[120.95657,14.60812],[120.95662,14.60738],[120.95864,14.60751],[120.95874,14.6063],[120.95674,14.60614],[120.95679,14.6054],[120.95879,14.60555],[120.95888,14.60439],[120.95638,14.60419],[120.95645,14.60332],[120.95894,14.60351],[120.95911,14.60235],[120.95497,14.60223],[120.94263,14.61937],[120.94671,14.61355],[120.9469,14.61264],[120.94553,14.61145],[120.94672,14.6095],[120.94641,14.6092],[120.94876,14.60585],[120.94952,14.60607],[120.95055,14.60467],[120.95235,14.60408],[120.95285,14.60261],[120.94115,14.60005],[120.9338,14.60437],[120.93144,14.60441],[120.93375,14.6043],[120.94125,14.5997],[120.94201,14.59628],[120.9547,14.59789],[120.95678,14.59797],[120.95796,14.59754],[120.95886,14.59797],[120.96542,14.59793],[120.96617,14.59682],[120.96203,14.59661],[120.96183,14.59575],[120.96139,14.59586],[120.96131,14.59658],[120.95834,14.59641],[120.95813,14.59585],[120.95733,14.59597],[120.95448,14.59443],[120.95251,14.59262],[120.95252,14.59181],[120.95442,14.59037],[120.95513,14.58882],[120.95768,14.58616],[120.95439,14.57973],[120.9543,14.57401],[120.95443,14.57971],[120.95992,14.59041],[120.96025,14.59374],[120.9607,14.59372],[120.96054,14.59202],[120.96145,14.59174],[120.96107,14.59444],[120.96154,14.59452],[120.9617,14.59533],[120.96162,14.59431],[120.96359,14.59352],[120.96347,14.59261],[120.9627,14.59161],[120.96267,14.59076],[120.9606,14.58807],[120.96089,14.58773],[120.96335,14.59008],[120.96438,14.58902],[120.96059,14.58474],[120.96092,14.58439],[120.96502,14.5883],[120.96595,14.58735],[120.96354,14.58504],[120.96422,14.58439],[120.96674,14.58677],[120.96768,14.58579],[120.96491,14.58308],[120.96545,14.58255],[120.96811,14.58513],[120.96937,14.58429],[120.96683,14.58177],[120.96751,14.5811],[120.9714,14.58465],[120.9717,14.5841],[120.97049,14.58292],[120.97181,14.58404],[120.97202,14.58368],[120.9708,14.58294],[120.97117,14.58194],[120.97044,14.58174],[120.97079,14.58058],[120.97167,14.57961],[120.9722,14.58014],[120.97261,14.57986],[120.97301,14.57889],[120.97422,14.57995],[120.97572,14.57736],[120.97806,14.57679],[120.9841,14.56392],[120.98252,14.56295],[120.98165,14.56368],[120.98136,14.56327],[120.98227,14.56264],[120.98401,14.56337],[120.98328,14.56295],[120.98371,14.56314],[120.98429,14.56218],[120.98375,14.56177],[120.98435,14.56205],[120.98454,14.56161],[120.981,14.55966],[120.97855,14.56393],[120.97882,14.56521],[120.97842,14.56392],[120.98092,14.5596],[120.9773,14.55761],[120.97716,14.5589],[120.97796,14.55978],[120.97712,14.55893],[120.97725,14.55757],[120.97623,14.55703],[120.97713,14.55734],[120.97728,14.55701],[120.98063,14.54504],[120.98053,14.54572],[120.98102,14.54548],[120.98144,14.54426],[120.97914,14.54341],[120.97844,14.54404],[120.979,14.54337],[120.9773,14.54299],[120.97776,14.53152],[120.97879,14.53161],[120.97879,14.53116],[120.97776,14.53106],[120.97801,14.52072],[120.97924,14.52064],[120.97923,14.52028],[120.97797,14.52031],[120.97647,14.51583],[120.97285,14.50961],[120.97651,14.50759],[120.98838,14.50409],[120.98753,14.50304],[120.98766,14.50148],[120.98699,14.49898],[120.98517,14.49473],[120.98382,14.49288],[120.98174,14.49293],[120.98075,14.49167],[120.98104,14.49052],[120.98024,14.48842],[120.97575,14.48243],[120.97298,14.47979],[120.9639,14.47415],[120.96045,14.47431],[120.95996,14.47356],[120.96005,14.47251],[120.95602,14.47088],[120.94784,14.4683],[120.93576,14.46585],[120.92564,14.46229],[120.92414,14.46338],[120.92333,14.46294],[120.92305,14.46533],[120.92242,14.46575],[120.92272,14.466],[120.92207,14.46518],[120.92248,14.46508],[120.92199,14.46495],[120.92202,14.46577],[120.91918,14.46916],[120.91804,14.46917],[120.9152,14.46573],[120.91745,14.46495],[120.91992,14.46239],[120.92162,14.46174],[120.92134,14.46098],[120.91961,14.46127],[120.91815,14.46335],[120.91671,14.46324],[120.91686,14.4624],[120.91614,14.46122],[120.91672,14.45958],[120.91594,14.45955],[120.91674,14.45942],[120.91676,14.45774],[120.91522,14.45728],[120.9142,14.45188],[120.91276,14.45147],[120.91247,14.45217],[120.9126,14.45144],[120.91201,14.45093],[120.91187,14.45207],[120.91239,14.4523],[120.91173,14.45362],[120.91116,14.45722],[120.90982,14.45721],[120.9101,14.45504],[120.90943,14.45493],[120.90924,14.45754],[120.90795,14.4575],[120.90782,14.45632],[120.90772,14.45898],[120.90623,14.45876],[120.90612,14.45773],[120.90523,14.4577],[120.90416,14.45796],[120.90416,14.45869],[120.90543,14.45864],[120.90541,14.45904],[120.90423,14.45928],[120.90436,14.45554],[120.90363,14.45814],[120.90152,14.45788],[120.90102,14.4534],[120.90133,14.45054],[120.90062,14.45005],[120.901,14.45063],[120.90004,14.45065],[120.89992,14.45148],[120.90041,14.45167],[120.89973,14.45162],[120.89974,14.45229],[120.89971,14.45006],[120.8993,14.45144],[120.89786,14.45181],[120.89966,14.45343],[120.8993,14.45501],[120.89857,14.45516],[120.89914,14.45665],[120.89881,14.45654],[120.89907,14.45891],[120.89875,14.45666],[120.89718,14.45648],[120.89729,14.458],[120.89765,14.45806],[120.89729,14.4581],[120.8974,14.4589],[120.89713,14.45733],[120.89685,14.45886],[120.89545,14.45806],[120.89528,14.45704],[120.89356,14.45709],[120.89355,14.45436],[120.89315,14.45406],[120.89412,14.45352],[120.89422,14.45286],[120.89338,14.45135],[120.89272,14.45128],[120.89087,14.45214],[120.89024,14.45175],[120.88856,14.45241],[120.88825,14.45205],[120.88843,14.45391],[120.88737,14.4548],[120.88979,14.45389],[120.88951,14.45364],[120.89022,14.45348],[120.89033,14.45387],[120.88969,14.45489],[120.889,14.45446],[120.88901,14.4551],[120.88841,14.45517],[120.88879,14.45591],[120.88757,14.45633],[120.88778,14.45722],[120.88729,14.45776],[120.88562,14.45737],[120.88721,14.45863],[120.88596,14.45979],[120.88608,14.46071],[120.88448,14.46002],[120.88357,14.46155],[120.88434,14.46293],[120.88521,14.46278],[120.88483,14.46308],[120.88514,14.46492],[120.88684,14.46512],[120.88541,14.46595],[120.88568,14.46716],[120.8867,14.46722],[120.88679,14.468],[120.88765,14.46862],[120.888,14.46823],[120.88909,14.46858],[120.88896,14.46899],[120.88992,14.46973],[120.89063,14.46951],[120.89058,14.47067],[120.89145,14.47096],[120.89134,14.47146],[120.89221,14.47188],[120.89361,14.47431],[120.89447,14.47401],[120.89535,14.47452],[120.89535,14.47492],[120.89476,14.475],[120.89549,14.47524],[120.89494,14.47598],[120.8957,14.47584],[120.8957,14.47683],[120.8961,14.47617],[120.90016,14.47779],[120.90258,14.47804],[120.90254,14.47997],[120.90303,14.47993],[120.90314,14.48067],[120.90283,14.48154],[120.9033,14.48137],[120.90368,14.48225],[120.90661,14.48265],[120.90714,14.48254],[120.90691,14.48167],[120.90764,14.48208],[120.90775,14.48166],[120.9081,14.48225],[120.90981,14.48194],[120.91351,14.48231],[120.91424,14.48174],[120.91547,14.4822],[120.91612,14.48065],[120.91556,14.48222],[120.91656,14.48263],[120.91729,14.48085],[120.91826,14.48123],[120.9176,14.48331],[120.91825,14.48239],[120.91838,14.48306],[120.91918,14.48203],[120.91959,14.48222],[120.91807,14.48461],[120.91575,14.48577],[120.91542,14.48563],[120.91574,14.48566],[120.91575,14.48481],[120.91215,14.48536],[120.91215,14.4859],[120.91172,14.48509],[120.9095,14.48549],[120.90933,14.48492],[120.90893,14.48526],[120.90792,14.48491],[120.90782,14.48612],[120.90769,14.48493],[120.90709,14.48471],[120.90303,14.486],[120.90215,14.48523],[120.90176,14.4859],[120.90226,14.48637],[120.90179,14.48742],[120.90197,14.48835],[120.90341,14.48953],[120.90346,14.49049],[120.90498,14.49229],[120.90538,14.49198],[120.90502,14.49236],[120.90622,14.49424],[120.90681,14.49464],[120.90752,14.4943],[120.90753,14.49484],[120.90827,14.49425],[120.90843,14.49537],[120.90898,14.49496],[120.91224,14.49689],[120.91442,14.49739],[120.91538,14.49711],[120.915,14.49751],[120.91573,14.49755],[120.91597,14.49712],[120.91765,14.49729],[120.91803,14.49911],[120.9164,14.50052],[120.91062,14.50173],[120.90648,14.5],[120.90616,14.50047],[120.90591,14.49974],[120.89894,14.49696],[120.89868,14.4972],[120.89868,14.49686],[120.8985,14.49728],[120.89675,14.495],[120.89199,14.49301],[120.89173,14.49146],[120.89079,14.49102],[120.89111,14.49081],[120.89075,14.48889],[120.89027,14.48897],[120.89053,14.48846],[120.89011,14.48819],[120.88988,14.48655],[120.89022,14.48614],[120.88981,14.48603],[120.89013,14.48568],[120.88935,14.48408],[120.88897,14.48427],[120.88883,14.48161],[120.88663,14.47898],[120.88531,14.47566],[120.88526,14.47668],[120.88444,14.47398],[120.88509,14.47509],[120.88519,14.47364],[120.88395,14.47209],[120.88433,14.47373],[120.88325,14.46906],[120.88092,14.4656],[120.87839,14.4629],[120.87602,14.45435],[120.87472,14.44739],[120.87192,14.43853],[120.86981,14.43406],[120.87013,14.43242],[120.86981,14.43266],[120.86913,14.43172],[120.86761,14.4314],[120.86837,14.43236],[120.8679,14.43216],[120.86642,14.43052],[120.86474,14.42968],[120.86218,14.42689],[120.86181,14.42718],[120.86186,14.42677],[120.86034,14.42597],[120.86071,14.4253],[120.85948,14.42435],[120.8571,14.42398],[120.85691,14.42359],[120.85591,14.42408],[120.85039,14.42397],[120.84697,14.42063],[120.84549,14.41825],[120.84471,14.41903],[120.84561,14.41803],[120.84479,14.41647],[120.84417,14.41264],[120.84268,14.41213],[120.8391,14.40469],[120.83869,14.40153],[120.83555,14.39718],[120.82579,14.39057],[120.82432,14.3885],[120.82097,14.38615],[120.81413,14.3793],[120.80872,14.37494],[120.80379,14.3734],[120.80355,14.37401],[120.80334,14.37339],[120.80235,14.37353],[120.80042,14.37124],[120.7958,14.36725],[120.79351,14.36594],[120.79367,14.36484],[120.79341,14.36525],[120.79081,14.36307],[120.78977,14.36282],[120.78635,14.35777],[120.78271,14.35476],[120.77938,14.35078],[120.77878,14.35084],[120.77919,14.35044],[120.77888,14.35052],[120.77915,14.35036],[120.77674,14.34531],[120.7723,14.34088],[120.76728,14.33316],[120.76604,14.33257],[120.76361,14.33217],[120.76283,14.33248],[120.76214,14.33207],[120.75684,14.3328],[120.75228,14.32556],[120.75013,14.32323],[120.74502,14.31935],[120.74114,14.31772],[120.73715,14.31711],[120.73341,14.31814],[120.73145,14.31788],[120.72913,14.3163],[120.72736,14.31237],[120.7243,14.30753],[120.72458,14.30576],[120.7172,14.2998],[120.71565,14.29782],[120.71436,14.29401],[120.71459,14.29358],[120.7154,14.29367],[120.71464,14.29303],[120.71479,14.29223],[120.714,14.29177],[120.7135,14.29061],[120.7133,14.28803],[120.71075,14.28809],[120.70921,14.293],[120.70869,14.2932],[120.70537,14.29095],[120.70459,14.28819],[120.70248,14.2863],[120.69687,14.28653],[120.69449,14.28465],[120.69458,14.28416],[120.69145,14.28269],[120.68968,14.28333],[120.68839,14.28446],[120.68786,14.28634],[120.68715,14.28624],[120.68658,14.28515],[120.68494,14.28512],[120.6848,14.28587],[120.68255,14.28436],[120.67986,14.28429],[120.67993,14.282],[120.67639,14.28136],[120.67545,14.2826],[120.6751,14.28464],[120.67242,14.28434],[120.67072,14.2871],[120.66796,14.28781],[120.66652,14.28465],[120.66697,14.28223],[120.6646,14.28137],[120.66234,14.28192],[120.66187,14.28306],[120.66214,14.28665],[120.66071,14.28718],[120.65697,14.27954],[120.65646,14.27946],[120.6541,14.28044],[120.6555,14.28361],[120.65488,14.28735],[120.65401,14.28721],[120.65085,14.28444],[120.65009,14.28297],[120.64916,14.28329],[120.64881,14.27923],[120.64765,14.27831],[120.64269,14.27832],[120.64279,14.28021],[120.64154,14.28049],[120.64077,14.28012],[120.63959,14.27813],[120.6399,14.27726],[120.6391,14.27639],[120.63906,14.27676],[120.63817,14.27691],[120.63736,14.27497],[120.63664,14.27476],[120.63734,14.27136],[120.63661,14.27052],[120.6367,14.26977],[120.63473,14.26883],[120.63382,14.26931],[120.63322,14.26696],[120.63125,14.26733],[120.63112,14.27083],[120.62925,14.2737],[120.62868,14.27321],[120.62875,14.27117],[120.6283,14.27117],[120.62875,14.27108],[120.6286,14.26957],[120.6265,14.26887],[120.62531,14.26999],[120.62372,14.27012],[120.62426,14.26823],[120.6229,14.26764],[120.62161,14.26844],[120.62112,14.26812],[120.62135,14.26714],[120.62207,14.26711],[120.62218,14.26591],[120.62154,14.26339],[120.62081,14.26326],[120.62075,14.26274],[120.622,14.2609],[120.62432,14.26046],[120.62524,14.25925],[120.6244,14.2583],[120.62455,14.25778],[120.62252,14.25557],[120.62151,14.25712],[120.6206,14.25577],[120.619,14.25644],[120.61995,14.25508],[120.62102,14.25504],[120.61983,14.25416],[120.62019,14.25305],[120.5981,14.27039],[120.37981,14.45937],[120.38764,14.46473],[120.38714,14.4619],[120.38777,14.46121],[120.3878,14.46025],[120.38908,14.4611],[120.39029,14.46097],[120.39127,14.46033],[120.39147,14.45877],[120.39216,14.45945],[120.39324,14.45943],[120.39498,14.46039],[120.39742,14.45941],[120.39875,14.46037],[120.40013,14.45959],[120.39962,14.45754],[120.39857,14.45654],[120.3987,14.45514],[120.40008,14.45568],[120.40074,14.45523],[120.40297,14.4575],[120.40408,14.45802],[120.40537,14.45751],[120.4063,14.45645],[120.40681,14.45652],[120.40707,14.45585],[120.41109,14.45733],[120.41238,14.45688],[120.41337,14.45428],[120.41322,14.45299],[120.41498,14.45359],[120.4157,14.45514],[120.41661,14.45566],[120.41812,14.45511],[120.41794,14.45363],[120.41898,14.45494],[120.4212,14.45376],[120.42181,14.45424],[120.42133,14.45112],[120.41997,14.44951],[120.42001,14.4486],[120.41919,14.44802],[120.41905,14.44728],[120.41999,14.44731],[120.42097,14.44579],[120.42096,14.44495],[120.42219,14.44469],[120.4222,14.44251],[120.4231,14.44305],[120.42317,14.44207],[120.42408,14.44315],[120.42545,14.44364],[120.42679,14.4434],[120.42691,14.4429],[120.4282,14.44509],[120.42836,14.44759],[120.42977,14.44844],[120.43254,14.44845],[120.43325,14.44718],[120.4345,14.44822],[120.4353,14.44793],[120.43577,14.44748],[120.43647,14.44404],[120.43792,14.44262],[120.43975,14.4432],[120.44321,14.44776],[120.44544,14.44747],[120.44606,14.44576],[120.44573,14.44441],[120.44649,14.4433],[120.446,14.44251],[120.44668,14.44252],[120.44677,14.44184],[120.44773,14.44301],[120.44928,14.44368],[120.45169,14.44269],[120.4525,14.44169],[120.45161,14.44037],[120.45364,14.44122],[120.45448,14.4409],[120.45424,14.44026],[120.45522,14.43992],[120.45401,14.43891],[120.45391,14.43787],[120.45435,14.43804],[120.45449,14.43736],[120.45494,14.43735],[120.45325,14.43658],[120.45494,14.43627],[120.45611,14.43684],[120.45799,14.43585],[120.45805,14.43487],[120.45695,14.43387],[120.45806,14.43366],[120.45827,14.43278],[120.45623,14.43148],[120.45691,14.42904],[120.45564,14.42776],[120.45622,14.4277],[120.45644,14.42857],[120.45706,14.42801],[120.45716,14.42857],[120.45804,14.42871],[120.45859,14.42821],[120.45832,14.42705],[120.45899,14.42797],[120.45948,14.42797],[120.45954,14.42721],[120.46004,14.42704],[120.45968,14.42701],[120.45985,14.42632],[120.46136,14.42592],[120.46256,14.42745],[120.46364,14.4277],[120.46434,14.42853],[120.46613,14.42782],[120.46617,14.42642],[120.4649,14.42541],[120.46402,14.42282],[120.46337,14.42219],[120.46247,14.42212],[120.46219,14.42106],[120.46361,14.41996],[120.46516,14.41999],[120.46601,14.42062],[120.4658,14.42164],[120.46771,14.42233],[120.46853,14.42347],[120.4708,14.42316],[120.47135,14.42261],[120.47031,14.42172],[120.46986,14.41911],[120.46839,14.41778],[120.46807,14.41595],[120.46932,14.41703],[120.47077,14.41712],[120.47068,14.41835],[120.47226,14.41898],[120.47259,14.42014],[120.47389,14.42042],[120.47452,14.41967],[120.47434,14.41915],[120.47613,14.42133],[120.4775,14.42137],[120.47837,14.42087],[120.47812,14.4177],[120.47694,14.4161],[120.47535,14.41543],[120.47538,14.41499],[120.47572,14.41562],[120.47602,14.41501],[120.47696,14.4149],[120.4754,14.41405],[120.47576,14.41358],[120.47519,14.41313],[120.4756,14.41263],[120.47494,14.41244],[120.47563,14.41245],[120.47433,14.41096],[120.4752,14.41183],[120.47624,14.41082],[120.47652,14.41247],[120.47819,14.4145],[120.47872,14.41451],[120.47862,14.41489],[120.47936,14.41497],[120.47929,14.41559],[120.48017,14.41622],[120.48089,14.41805],[120.48298,14.41847],[120.48388,14.41817],[120.48453,14.4173],[120.48437,14.41557],[120.48356,14.4142],[120.48351,14.41312],[120.48423,14.41341],[120.48361,14.4127],[120.48395,14.41192],[120.4847,14.4137],[120.48544,14.41428],[120.48536,14.41485],[120.48587,14.41541],[120.4867,14.41544],[120.48589,14.41578],[120.48658,14.41652],[120.48651,14.41727],[120.48775,14.41784],[120.48958,14.41785],[120.49134,14.41694],[120.49185,14.41559],[120.49301,14.41516],[120.49321,14.41324],[120.4926,14.41117],[120.49389,14.41175],[120.49492,14.41023],[120.4957,14.41018],[120.49669,14.40903],[120.49717,14.40968],[120.49871,14.40941],[120.49928,14.41075],[120.49925,14.41244],[120.49854,14.41328],[120.49677,14.41409],[120.49621,14.41527],[120.49356,14.41553],[120.49276,14.41615],[120.49176,14.41767],[120.49162,14.41988],[120.4905,14.42129],[120.48937,14.42165],[120.48934,14.42295],[120.48717,14.42427],[120.48614,14.42412],[120.48541,14.4267],[120.48224,14.43019],[120.48301,14.42976],[120.48365,14.43174],[120.48433,14.43166],[120.4838,14.43211],[120.48419,14.43285],[120.4849,14.4327],[120.48416,14.43323],[120.485,14.43494],[120.48542,14.43463],[120.48489,14.4336],[120.48822,14.43671],[120.48895,14.43643],[120.49118,14.43724],[120.49154,14.43683],[120.49247,14.43755],[120.49298,14.43657],[120.49268,14.43765],[120.49457,14.4384],[120.49522,14.43713],[120.49603,14.4374],[120.49585,14.4379],[120.49627,14.43804],[120.49658,14.43719],[120.49551,14.43629],[120.49702,14.43654],[120.49688,14.43711],[120.49724,14.43626],[120.49814,14.43642],[120.49804,14.43774],[120.4983,14.43689],[120.49977,14.43684],[120.50001,14.43732],[120.50013,14.43673],[120.50057,14.43672],[120.50055,14.43718],[120.50201,14.4368],[120.50199,14.43634],[120.50231,14.43672],[120.50222,14.43459],[120.50244,14.43669],[120.5033,14.43647],[120.50327,14.4355],[120.5034,14.43644],[120.50707,14.43549],[120.50648,14.43441],[120.50741,14.43489],[120.50799,14.43436],[120.50778,14.43381],[120.50914,14.43359],[120.51024,14.43088],[120.5123,14.42884],[120.51187,14.42808],[120.51107,14.42809],[120.51128,14.42688],[120.51208,14.42638],[120.51583,14.42649],[120.51838,14.42416],[120.51951,14.42433],[120.52051,14.42564],[120.52009,14.42695],[120.5205,14.42754],[120.52002,14.42847],[120.51882,14.42923],[120.51959,14.43065],[120.52106,14.43086],[120.52292,14.42982],[120.52579,14.42911],[120.52529,14.42998],[120.52771,14.43014],[120.52796,14.43055],[120.53053,14.43101],[120.53157,14.42969],[120.53025,14.42559],[120.53177,14.42541],[120.5333,14.42415],[120.53298,14.42099],[120.53588,14.42029],[120.53336,14.42124],[120.53337,14.42414],[120.53854,14.42291],[120.53862,14.42223],[120.53936,14.42288],[120.54371,14.42322],[120.54543,14.42423],[120.5447,14.42453],[120.54552,14.42501],[120.54675,14.42399],[120.54982,14.42353],[120.55265,14.42387],[120.55506,14.42552],[120.55778,14.42619],[120.5594,14.42511],[120.56104,14.42478],[120.56294,14.42557],[120.56292,14.42476],[120.56315,14.42565],[120.56431,14.42558],[120.56315,14.42575],[120.56208,14.42748],[120.56345,14.42788],[120.56368,14.42659],[120.56488,14.427],[120.56403,14.4267],[120.56359,14.42794],[120.56539,14.42907],[120.56512,14.43139],[120.56604,14.43221],[120.56763,14.4315],[120.568,14.4306],[120.56829,14.43078],[120.56965,14.42715],[120.56875,14.42694],[120.56946,14.42687],[120.57055,14.42758],[120.56974,14.42718],[120.56935,14.42827],[120.57051,14.42872],[120.56931,14.42834],[120.56813,14.43157],[120.56883,14.43343],[120.56987,14.4341],[120.5715,14.43336],[120.57501,14.43346],[120.57615,14.43578],[120.57823,14.43656],[120.57902,14.43829],[120.57853,14.43946],[120.57956,14.4414],[120.58127,14.4422],[120.5833,14.44246],[120.58427,14.4445],[120.58494,14.44465],[120.58434,14.44553],[120.5856,14.44606],[120.58552,14.44647],[120.58634,14.44652],[120.5863,14.44772],[120.58715,14.44966],[120.58982,14.45124],[120.59006,14.45204],[120.59102,14.45186],[120.59178,14.45435],[120.59226,14.45407],[120.59317,14.4552],[120.59263,14.45565],[120.59265,14.4569],[120.59383,14.45896],[120.5952,14.45995],[120.59924,14.45541],[120.60426,14.46015],[120.6003,14.46281],[120.6,14.46343],[120.60101,14.4634],[120.60164,14.46726],[120.6027,14.4695],[120.60485,14.46923],[120.60305,14.46958],[120.60256,14.47076],[120.60778,14.4699],[120.60806,14.4716],[120.60764,14.47011],[120.60557,14.47046],[120.60589,14.47243],[120.60254,14.47292],[120.60351,14.47801],[120.60486,14.47956],[120.60572,14.47971],[120.60632,14.47902],[120.60728,14.47986],[120.6077,14.48253],[120.61376,14.48138],[120.60867,14.48268],[120.60916,14.48293],[120.60775,14.48272],[120.60772,14.48444],[120.60676,14.48491],[120.60682,14.48563],[120.60757,14.48587],[120.60847,14.48718],[120.60727,14.48777],[120.60703,14.48977],[120.60791,14.49154],[120.60834,14.49755],[120.60929,14.49758],[120.6085,14.49785],[120.60839,14.49834],[120.60866,14.50317],[120.60909,14.50353],[120.61661,14.50314],[120.61686,14.50037],[120.61664,14.5032],[120.60916,14.50358],[120.60961,14.50372],[120.6091,14.5041],[120.60917,14.50553],[120.6099,14.50594],[120.60935,14.50644],[120.60962,14.50919],[120.61206,14.51428],[120.60906,14.52325],[120.60941,14.52288],[120.6097,14.52333],[120.61358,14.52311],[120.61346,14.52366],[120.60901,14.5234],[120.60589,14.53276],[120.60687,14.53293],[120.60706,14.53506],[120.61148,14.53516],[120.60554,14.53527],[120.60493,14.53561],[120.60153,14.54582],[120.60213,14.54628],[120.60128,14.54655],[120.5977,14.55198],[120.59752,14.55298],[120.59848,14.55307],[120.59775,14.55827],[120.59887,14.55998],[120.59835,14.56002],[120.59819,14.56135],[120.59924,14.56078],[120.59915,14.56137],[120.59688,14.5659],[120.59611,14.56619],[120.5953,14.57069],[120.59398,14.57134],[120.59348,14.57231],[120.59245,14.57733],[120.59267,14.57842],[120.59149,14.57906],[120.59116,14.58035],[120.59111,14.58117],[120.59203,14.58215],[120.59052,14.58302],[120.59057,14.58593],[120.58969,14.58634],[120.59033,14.58685],[120.60038,14.58884],[120.59805,14.59937],[120.58558,14.59827],[120.58466,14.6038],[120.58485,14.60764],[120.58449,14.60861],[120.58365,14.60888],[120.58459,14.60938],[120.58445,14.61363],[120.58483,14.61371],[120.58496,14.6147],[120.58465,14.61546],[120.58415,14.61538],[120.58395,14.61626],[120.582,14.61634],[120.58277,14.61647],[120.58297,14.61698],[120.58381,14.61689],[120.58312,14.61707],[120.58309,14.6178],[120.58384,14.61833],[120.58347,14.61868],[120.58431,14.61878],[120.58341,14.61921],[120.58483,14.6197],[120.58317,14.6198],[120.58335,14.62005],[120.58253,14.62032],[120.58298,14.62052],[120.58311,14.62139],[120.58506,14.62155],[120.5844,14.62162],[120.58433,14.62422],[120.58341,14.62414],[120.58491,14.62415],[120.58497,14.62682],[120.58557,14.627],[120.58442,14.62687],[120.58393,14.6304],[120.58339,14.63042],[120.58395,14.63367],[120.58335,14.63491],[120.58386,14.63572],[120.58275,14.64115],[120.58213,14.64201],[120.58084,14.64177],[120.58164,14.64236],[120.58303,14.64242],[120.58292,14.64406],[120.58274,14.64468],[120.58176,14.6446],[120.5812,14.64506],[120.58205,14.64576],[120.58128,14.64541],[120.58074,14.64579],[120.58163,14.64595],[120.58131,14.64681],[120.582,14.64599],[120.58022,14.65065],[120.5799,14.6506],[120.5802,14.65072],[120.57973,14.65357],[120.57857,14.65466],[120.57661,14.65848],[120.57625,14.66023],[120.57535,14.66077],[120.57365,14.66469],[120.57286,14.66478],[120.57315,14.66516],[120.5717,14.66662],[120.57135,14.66772],[120.56946,14.66923],[120.56917,14.66994],[120.56958,14.6702],[120.56839,14.67028],[120.56914,14.67207],[120.56853,14.67211],[120.56817,14.67323],[120.5675,14.67372],[120.56745,14.67517],[120.56599,14.67749],[120.56618,14.67921],[120.56532,14.68079],[120.56446,14.68137],[120.56514,14.68156],[120.56526,14.68242],[120.56507,14.68619],[120.56447,14.68662],[120.56487,14.68716],[120.56445,14.68866],[120.56496,14.69143],[120.56439,14.69186],[120.56394,14.69154],[120.5634,14.69265],[120.56231,14.69245],[120.5625,14.69289],[120.55936,14.69153],[120.55799,14.69026],[120.55744,14.69085],[120.56056,14.69334],[120.5658,14.69598],[120.56264,14.69825],[120.56154,14.70017],[120.56185,14.70125],[120.56133,14.70211],[120.56026,14.70107],[120.55871,14.69566],[120.55821,14.69567],[120.55932,14.70028],[120.56075,14.7031],[120.56017,14.70358],[120.55973,14.70244],[120.55897,14.70338],[120.5578,14.7033],[120.55709,14.70314],[120.55702,14.70266],[120.55601,14.70446],[120.55533,14.70476],[120.55474,14.70429],[120.55506,14.70325],[120.5537,14.70415],[120.55421,14.70503],[120.55269,14.70532],[120.55171,14.70682],[120.55084,14.70673],[120.55202,14.70757],[120.54959,14.71099],[120.54753,14.71572],[120.54726,14.72201],[120.544,14.7224],[120.54403,14.7228],[120.5494,14.72269],[120.54799,14.72273],[120.54646,14.72426],[120.54602,14.72663],[120.54525,14.72771],[120.54611,14.73637],[120.54668,14.73763],[120.54631,14.73886],[120.54707,14.73911],[120.54791,14.7416],[120.54768,14.74247],[120.5488,14.74431],[120.54902,14.74563],[120.54944,14.74563],[120.55053,14.74761],[120.55296,14.74939],[120.55319,14.75048],[120.55254,14.75143],[120.55356,14.75098],[120.55389,14.75141],[120.55329,14.75327],[120.55161,14.75592],[120.55065,14.75581],[120.54983,14.75739],[120.54865,14.76243],[120.54829,14.7624],[120.54842,14.76413],[120.54778,14.7647],[120.54819,14.76494],[120.54743,14.76523],[120.54837,14.76592],[120.54815,14.76689],[120.54774,14.76678],[120.54815,14.76708],[120.54769,14.76721],[120.54807,14.76752],[120.54787,14.76989],[120.54846,14.7705],[120.5489,14.77262],[120.54875,14.77394],[120.54803,14.77451],[120.55059,14.77576],[120.55061,14.77617],[120.54951,14.77657],[120.54969,14.77709],[120.54688,14.7762],[120.54604,14.77788],[120.5499,14.77859],[120.5491,14.77952],[120.54981,14.78167],[120.54772,14.78199],[120.54781,14.78292],[120.54678,14.78258],[120.54636,14.78304],[120.54736,14.7838],[120.54575,14.788],[120.54557,14.78997],[120.54683,14.79024],[120.54551,14.79017],[120.54509,14.79091],[120.5456,14.79104],[120.54526,14.79214],[120.54637,14.79153],[120.54749,14.7918],[120.54729,14.79359],[120.54636,14.79505],[120.54433,14.79424],[120.5455,14.79504],[120.54381,14.79437],[120.54317,14.79497],[120.54323,14.79548],[120.54403,14.79505],[120.54631,14.79566],[120.54393,14.79543],[120.5439,14.79593],[120.5451,14.79592],[120.54556,14.79667],[120.54652,14.7958],[120.54551,14.79812],[120.54391,14.80061],[120.54299,14.80076],[120.54331,14.80158],[120.54156,14.8043],[120.54014,14.80376],[120.5409,14.80468],[120.54076,14.80441],[120.53536,14.80698],[120.53007,14.81227],[120.52868,14.82175],[120.53119,14.82872],[120.53314,14.82928],[120.53648,14.82537],[120.53759,14.82983],[120.54289,14.83039],[120.54122,14.83485],[120.53453,14.83457],[120.53146,14.83931],[120.52979,14.84377],[120.53063,14.84377],[120.53063,14.8485],[120.52589,14.85408],[120.52701,14.8577],[120.53342,14.86244],[120.53843,14.86996],[120.54094,14.87554],[120.55097,14.88585],[120.55682,14.87554],[120.5663,14.87805],[120.57048,14.87331],[120.57494,14.86662],[120.57745,14.86188],[120.58218,14.85798],[120.58831,14.85714],[120.58497,14.86829],[120.578,14.87275],[120.57438,14.87303],[120.56769,14.88418],[120.55933,14.89644],[120.56658,14.90842],[120.57605,14.91372],[120.59807,14.93295],[120.59918,14.94354],[120.59807,14.96082],[120.61646,14.97698],[120.62928,14.982],[120.64656,14.97419],[120.65882,14.98088],[120.67554,14.97977],[120.68725,14.98199],[120.6839,14.97252],[120.67652,14.96695],[120.66579,14.96263],[120.67039,14.95803],[120.66969,14.96193],[120.67916,14.9636],[120.68529,14.96611],[120.68808,14.96917],[120.68934,14.97558],[120.69352,14.97907],[120.70229,14.97963],[120.70759,14.98422],[120.71149,14.98854],[120.71651,14.99175],[120.7257,14.99453],[120.7296,14.99021],[120.73044,14.98269],[120.7296,14.9774],[120.72933,14.97043],[120.72765,14.96611],[120.72473,14.96193],[120.72152,14.95942],[120.72319,14.95775],[120.73155,14.96165],[120.73518,14.96778],[120.73978,14.97057],[120.7434,14.97489],[120.74577,14.97558],[120.748,14.97447],[120.75468,14.95747],[120.7427,14.94409],[120.72793,14.93852],[120.72375,14.93517],[120.72041,14.92821],[120.72208,14.9257],[120.72626,14.92124],[120.72849,14.91678],[120.72988,14.91065],[120.74381,14.90173],[120.7505,14.89365],[120.75273,14.88334],[120.75357,14.8772],[120.75691,14.86829],[120.76304,14.84822],[120.77112,14.86188],[120.77503,14.85937],[120.78339,14.85937],[120.79175,14.85101],[120.79732,14.8432],[120.79843,14.8354],[120.81515,14.82871],[120.8302,14.81255],[120.83633,14.80474],[120.84748,14.79861],[120.86086,14.79025],[120.87033,14.78579],[120.88705,14.80697],[120.89374,14.81032],[120.91548,14.79471],[120.92829,14.7791],[120.93554,14.76127],[120.94056,14.75179],[120.94836,14.73897],[120.9478,14.72726],[120.94334,14.72336],[120.93219,14.73117],[120.92216,14.74343],[120.91993,14.72838],[120.94111,14.6994],[120.9439,14.68936],[120.92996,14.68546],[120.9232,14.68643],[120.92355,14.68605],[120.92374,14.68585]],[[120.61705,14.36607],[120.61887,14.36657],[120.62203,14.36836],[120.6221,14.37012],[120.62115,14.37174],[120.61871,14.36883],[120.61821,14.36953],[120.61835,14.36891],[120.618,14.36908],[120.61698,14.36814],[120.6108,14.36698],[120.61254,14.3661],[120.61703,14.36607],[120.61705,14.36607]],[[120.57843,14.37396],[120.57883,14.37497],[120.58094,14.37556],[120.58257,14.37695],[120.58311,14.37923],[120.58272,14.38216],[120.58391,14.38463],[120.58526,14.3856],[120.58743,14.38613],[120.5879,14.38485],[120.58775,14.38597],[120.58952,14.38597],[120.59083,14.38834],[120.59177,14.38903],[120.59498,14.38939],[120.59757,14.38775],[120.59799,14.38821],[120.59906,14.38795],[120.60017,14.38971],[120.60148,14.38971],[120.60191,14.38917],[120.603,14.38937],[120.60366,14.39008],[120.60568,14.39036],[120.60546,14.39111],[120.60643,14.39253],[120.60912,14.39264],[120.61394,14.39161],[120.61872,14.38708],[120.61908,14.38724],[120.61407,14.3925],[120.60655,14.39539],[120.6028,14.39483],[120.60075,14.39271],[120.59455,14.39402],[120.59388,14.39271],[120.59315,14.3923],[120.59135,14.39293],[120.59063,14.39238],[120.58927,14.39304],[120.5888,14.39203],[120.58761,14.39234],[120.58633,14.39001],[120.58609,14.39041],[120.58613,14.38997],[120.58472,14.39013],[120.58525,14.38938],[120.58459,14.38907],[120.58312,14.38965],[120.58401,14.39062],[120.58282,14.38983],[120.5818,14.39121],[120.57812,14.39424],[120.57612,14.39367],[120.57176,14.3942],[120.56874,14.39172],[120.56356,14.38977],[120.56227,14.38997],[120.56281,14.38957],[120.56071,14.38586],[120.56286,14.38111],[120.56539,14.37915],[120.56545,14.37764],[120.56638,14.37817],[120.56752,14.37707],[120.56825,14.37712],[120.56878,14.37644],[120.56873,14.37556],[120.56969,14.37587],[120.57144,14.37495],[120.57599,14.37553],[120.57843,14.37395],[120.57843,14.37396]],[[120.62032,14.38488],[120.62064,14.38455],[120.6206,14.385],[120.61987,14.38592],[120.62026,14.38492],[120.62032,14.38488]]]}},{"type":"Feature","properties":{"name":"Luneta National Park","area_type":"PA"},"geometry":{"type":"Polygon","coordinates":[[[120.98068,14.58394],[120.97792,14.5817],[120.97634,14.5849],[120.97748,14.58636],[120.97773,14.58612],[120.9789,14.58698],[120.97933,14.5861],[120.97992,14.5864],[120.98052,14.58604],[120.98054,14.58543],[120.97996,14.58503],[120.98068,14.58394]]]}},{"type":"Feature","properties":{"name":"Manila Bay Beach Resort","area_type":"PA"},"geometry":{"type":"Polygon","coordinates":[[[120.99212,14.52728],[120.9918,14.53385],[120.98948,14.54762],[120.98497,14.56438],[120.9933,14.5689],[120.99572,14.56325],[120.99814,14.55387],[121.00152,14.53013],[121.00157,14.52694],[120.99212,14.52728]]]}},{"type":"Feature","properties":{"name":"Las Piñas-Parañaque Wetland Park","area_type":"PA"},"geometry":{"type":"Polygon","coordinates":[[[120.98329,14.50477],[120.98389,14.50422],[120.98776,14.50369],[120.98729,14.50028],[120.98564,14.49577],[120.98367,14.49292],[120.9816,14.49299],[120.98089,14.49214],[120.98088,14.49059],[120.98002,14.48866],[120.97578,14.48282],[120.9709,14.47852],[120.96998,14.47889],[120.96959,14.47956],[120.97055,14.48157],[120.97028,14.48269],[120.97183,14.48636],[120.97157,14.48679],[120.97674,14.49416],[120.97982,14.49488],[120.98074,14.5015],[120.98037,14.50353],[120.9817,14.50374],[120.98323,14.50481],[120.98329,14.50477]]]}},{"type":"Feature","properties":{"name":"Ninoy Aquino Parks and Wildlife Center","area_type":"PA"},"geometry":{"type":"Polygon","coordinates":[[[121.04309,14.65024],[121.04139,14.6492],[121.03973,14.65369],[121.03765,14.6541],[121.03758,14.65506],[121.04498,14.65346],[121.04546,14.65171],[121.04324,14.65034],[121.04309,14.65024]]]}}]}